NORAD_CAT_ID,OBJECT_NAME,OBJECT_TYPE,EPOCH,MEAN_MOTION,ECCENTRICITY,INCLINATION,RA_OF_ASC_NODE,ARG_OF_PERICENTER,MEAN_ANOMALY,BSTAR,MEAN_MOTION_DOT,MEAN_MOTION_DDOT,TLE_LINE0,TLE_LINE1,TLE_LINE2,SEMIMAJOR_AXIS,PERIOD,APOGEE,PERIGEE,DECAYED
53153.0,STARLINK-4098,PAYLOAD,2023-05-13 04:10:46,15.08839143,0.0001216,53.2168,114.7718,92.2701,267.843,4.023e-05,3.52e-06,0.0,0 STARLINK-4098,1 53153U 22083X   23133.17414805  .00000352  00000-0  40230-4 0  9997,2 53153  53.2168 114.7718 0001216  92.2701 267.8430 15.08839143 45634,6917.883,95.438,540.589,538.907,0.0
53153.0,STARLINK-4098,PAYLOAD,2023-05-13 15:18:28,15.08837194,0.0001181,53.2169,112.6895,88.9568,271.156,6.5027e-05,7.47e-06,0.0,0 STARLINK-4098,1 53153U 22083X   23133.63782888  .00000747  00000-0  65027-4 0  9996,2 53153  53.2169 112.6895 0001181  88.9568 271.1560 15.08837194 46336,6917.889,95.438,540.571,538.937,0.0
53153.0,STARLINK-4098,PAYLOAD,2023-05-14 04:01:34,15.08830367,0.0001277,53.2177,110.3174,101.7668,258.3467,1.8617e-05,8e-08,0.0,0 STARLINK-4098,1 53153U 22083X   23134.16775793  .00000008  00000-0  18617-4 0  9995,2 53153  53.2177 110.3174 0001277 101.7668 258.3467 15.08830367 46418,6917.91,95.438,540.658,538.891,0.0
53153.0,STARLINK-4098,PAYLOAD,2023-05-14 05:36:57,15.08829811,0.0001272,53.2177,110.0181,99.2853,260.8283,1.2455e-05,-9e-07,0.0,0 STARLINK-4098,1 53153U 22083X   23134.23399862 -.00000090  00000-0  12455-4 0  9998,2 53153  53.2177 110.0181 0001272  99.2853 260.8283 15.08829811 45791,6917.912,95.438,540.656,538.897,0.0
53153.0,STARLINK-4098,PAYLOAD,2023-05-15 03:52:20,15.08838454,0.0001479,53.219,105.8552,113.0497,247.0651,7.8112e-05,9.55e-06,0.0,0 STARLINK-4098,1 53153U 22083X   23135.16135332  .00000955  00000-0  78112-4 0  9992,2 53153  53.2190 105.8552 0001479 113.0497 247.0651 15.08838454 46563,6917.885,95.438,540.773,538.727,0.0
53153.0,STARLINK-4098,PAYLOAD,2023-05-15 05:27:44,15.08839666,0.0001303,53.2183,105.5571,106.8223,253.2912,7.2752e-05,8.7e-06,0.0,0 STARLINK-4098,1 53153U 22083X   23135.22759291  .00000870  00000-0  72752-4 0  9995,2 53153  53.2183 105.5571 0001303 106.8223 253.2912 15.08839666 45942,6917.881,95.438,540.648,538.845,0.0
53153.0,STARLINK-4098,PAYLOAD,2023-05-15 15:00:02,15.08865861,9.23e-05,53.2169,103.7704,89.9093,270.2005,-0.00027464,-4.659e-05,0.0,0 STARLINK-4098,1 53153U 22083X   23135.62502322 -.00004659  00000-0 -27464-3 0  9990,2 53153  53.2169 103.7704 0000923  89.9093 270.2005 15.08865861 46632,6917.801,95.436,540.305,539.028,0.0
53153.0,STARLINK-4098,PAYLOAD,2023-05-16 05:18:31,15.08837552,0.0001086,53.2172,101.0934,77.8858,282.2256,5.993e-05,6.66e-06,0.0,0 STARLINK-4098,1 53153U 22083X   23136.22119798  .00000666  00000-0  59930-4 0  9994,2 53153  53.2172 101.0934 0001086  77.8858 282.2256 15.08837552 46725,6917.888,95.438,540.504,539.002,0.0
53153.0,STARLINK-4098,PAYLOAD,2023-05-16 21:12:22,15.08841001,0.0001132,53.217,98.1211,76.8635,283.2484,5.203e-05,5.4e-06,0.0,0 STARLINK-4098,1 53153U 22083X   23136.88359650  .00000540  00000-0  52030-4 0  9994,2 53153  53.2170  98.1211 0001132  76.8635 283.2484 15.08841001 46190,6917.877,95.437,540.525,538.959,0.0
53153.0,STARLINK-4098,PAYLOAD,2023-05-17 03:33:54,15.08845462,0.0001037,53.2172,96.9325,78.746,281.3649,7.6222e-05,9.26e-06,0.0,0 STARLINK-4098,1 53153U 22083X   23137.14855233  .00000926  00000-0  76222-4 0  9999,2 53153  53.2172  96.9325 0001037  78.7460 281.3649 15.08845462 46866,6917.864,95.437,540.446,539.011,0.0
53153.0,STARLINK-4098,PAYLOAD,2023-05-18 03:24:42,15.08832512,0.0001038,53.2173,92.4715,80.8175,279.2934,3.8709e-05,3.28e-06,0.0,0 STARLINK-4098,1 53153U 22083X   23138.14216169  .00000328  00000-0  38709-4 0  9993,2 53153  53.2173  92.4715 0001038  80.8175 279.2934 15.08832512 47012,6917.903,95.438,540.486,539.05,0.0
53153.0,STARLINK-4098,PAYLOAD,2023-05-18 06:35:28,15.08838973,0.0001115,53.217,91.8762,80.891,279.2208,4.4853e-05,4.26e-06,0.0,0 STARLINK-4098,1 53153U 22083X   23138.27463734  .00000426  00000-0  44853-4 0  9995,2 53153  53.2170  91.8762 0001115  80.8910 279.2208 15.08838973 47030,6917.884,95.438,540.52,538.977,0.0
53153.0,STARLINK-4098,PAYLOAD,2023-05-19 03:15:28,15.08846492,0.0001123,53.2171,88.0097,82.5706,277.5414,2.4612e-05,1.04e-06,0.0,0 STARLINK-4098,1 53153U 22083X   23139.13575216  .00000104  00000-0  24612-4 0  9994,2 53153  53.2171  88.0097 0001123  82.5706 277.5414 15.08846492 47160,6917.861,95.437,540.502,538.949,0.0
53153.0,STARLINK-4098,PAYLOAD,2023-05-19 20:44:44,15.08835524,0.0001167,53.2172,84.7378,83.0203,277.0922,2.8054e-05,1.59e-06,0.0,0 STARLINK-4098,1 53153U 22083X   23139.86439911  .00000159  00000-0  28054-4 0  9999,2 53153  53.2172  84.7378 0001167  83.0203 277.0922 15.08835524 46647,6917.894,95.438,540.566,538.952,0.0
53153.0,STARLINK-4098,PAYLOAD,2023-05-20 03:06:16,15.08840763,0.0001147,53.2173,83.5482,82.9474,277.1649,7.0287e-05,8.31e-06,0.0,0 STARLINK-4098,1 53153U 22083X   23140.12935473  .00000831  00000-0  70287-4 0  9996,2 53153  53.2173  83.5482 0001147  82.9474 277.1649 15.08840763 47310,6917.878,95.438,540.537,538.95,0.0
53153.0,STARLINK-4098,PAYLOAD,2023-05-20 06:17:02,15.0884157,0.0001154,53.2173,82.9537,82.7809,277.3314,7.7176e-05,9.41e-06,0.0,0 STARLINK-4098,1 53153U 22083X   23140.26183462  .00000941  00000-0  77176-4 0  9990,2 53153  53.2173  82.9537 0001154  82.7809 277.3314 15.08841570 46702,6917.876,95.437,540.539,538.942,0.0
53153.0,STARLINK-4098,PAYLOAD,2023-05-21 02:57:02,15.08855919,0.0001036,53.2168,79.0888,81.4519,278.659,0.00011428,1.532e-05,0.0,0 STARLINK-4098,1 53153U 22083X   23141.12294085  .00001532  00000-0  11428-3 0  9994,2 53153  53.2168  79.0888 0001036  81.4519 278.6590 15.08855919 47461,6917.832,95.437,540.413,538.98,0.0
53153.0,STARLINK-4098,PAYLOAD,2023-05-21 20:26:18,15.08832312,0.0001123,53.2183,75.818,83.0969,277.0151,-4.0674e-05,-9.35e-06,0.0,0 STARLINK-4098,1 53153U 22083X   23141.85160308 -.00000935  00000-0 -40674-4 0  9998,2 53153  53.2183  75.8180 0001123  83.0969 277.0151 15.08832312 46941,6917.904,95.438,540.546,538.992,0.0
53153.0,STARLINK-4098,PAYLOAD,2023-05-22 02:47:51,15.08827934,0.0001119,53.2179,74.6278,76.9887,283.123,-7.4906e-05,-1.479e-05,0.0,0 STARLINK-4098,1 53153U 22083X   23142.11656858 -.00001479  00000-0 -74906-4 0  9997,2 53153  53.2179  74.6278 0001119  76.9887 283.1230 15.08827934 47611,6917.917,95.438,540.556,539.008,0.0
53153.0,STARLINK-4098,PAYLOAD,2023-05-22 12:20:10,15.08834674,0.0001128,53.2182,72.8454,84.3189,275.7932,-4.3405e-05,-9.78e-06,0.0,0 STARLINK-4098,1 53153U 22083X   23142.51400590 -.00000978  00000-0 -43405-4 0  9994,2 53153  53.2182  72.8454 0001128  84.3189 275.7932 15.08834674 47041,6917.897,95.438,540.542,538.981,0.0
53153.0,STARLINK-4098,PAYLOAD,2023-05-23 02:38:37,15.08852708,0.0001072,53.2178,70.1688,91.5259,268.5856,1.495e-05,-5e-07,0.0,0 STARLINK-4098,1 53153U 22083X   23143.11015329 -.00000050  00000-0  14950-4 0  9996,2 53153  53.2178  70.1688 0001072  91.5259 268.5856 15.08852708 47764,6917.842,95.437,540.448,538.965,0.0
53153.0,STARLINK-4098,PAYLOAD,2023-05-23 04:14:00,15.08856183,0.0001088,53.2178,69.8715,93.2227,266.889,5.2485e-05,5.48e-06,0.0,0 STARLINK-4098,1 53153U 22083X   23143.17639004  .00000548  00000-0  52485-4 0  9990,2 53153  53.2178  69.8715 0001088  93.2227 266.8890 15.08856183 47143,6917.831,95.437,540.449,538.943,0.0
53153.0,STARLINK-4098,PAYLOAD,2023-05-24 00:54:02,15.08829845,0.0001138,53.2179,66.0062,79.9955,280.1166,0.00019129,2.757e-05,0.0,0 STARLINK-4098,1 53153U 22083X   23144.03752644  .00002757  00000-0  19129-3 0  9993,2 53153  53.2179  66.0062 0001138  79.9955 280.1166 15.08829845 47907,6917.911,95.438,540.564,538.989,0.0
53153.0,STARLINK-4098,PAYLOAD,2023-05-24 02:29:25,15.08834913,0.0001119,53.2182,65.7089,91.3911,268.7209,0.00022661,3.32e-05,0.0,0 STARLINK-4098,1 53153U 22083X   23144.10376313  .00003320  00000-0  22661-3 0  9998,2 53153  53.2182  65.7089 0001119  91.3911 268.7209 15.08834913 47288,6917.896,95.438,540.535,538.987,0.0
53153.0,STARLINK-4098,PAYLOAD,2023-05-26 00:35:35,15.08848625,0.0001227,53.2192,57.0844,95.8025,264.3107,2.3506e-05,8.6e-07,0.0,0 STARLINK-4098,1 53153U 22083X   23146.02472201  .00000086  00000-0  23506-4 0  9990,2 53153  53.2192  57.0844 0001227  95.8025 264.3107 15.08848625 48204,6917.854,95.437,540.568,538.87,0.0
53153.0,STARLINK-4098,PAYLOAD,2023-05-26 21:15:37,15.0883513,0.0001139,53.2179,53.2177,94.6555,265.4567,2.8592e-05,1.67e-06,0.0,0 STARLINK-4098,1 53153U 22083X   23146.88585152  .00000167  00000-0  28592-4 0  9994,2 53153  53.2179  53.2177 0001139  94.6555 265.4567 15.08835130 47706,6917.895,95.438,540.548,538.972,0.0
53153.0,STARLINK-4098,PAYLOAD,2023-05-27 00:26:23,15.08837062,0.0001098,53.2174,52.6264,79.5616,280.5499,5.5168e-05,5.9e-06,0.0,0 STARLINK-4098,1 53153U 22083X   23147.01833076  .00000590  00000-0  55168-4 0  9990,2 53153  53.2174  52.6264 0001098  79.5616 280.5499 15.08837062 48355,6917.889,95.438,540.514,538.995,0.0
53153.0,STARLINK-4098,PAYLOAD,2023-05-27 21:06:24,15.08835007,0.0001098,53.2181,48.7596,84.0461,276.0656,0.00013297,1.829e-05,0.0,0 STARLINK-4098,1 53153U 22083X   23147.87944982  .00001829  00000-0  13297-3 0  9995,2 53153  53.2181  48.7596 0001098  84.0461 276.0656 15.08835007 47852,6917.896,95.438,540.52,539.001,0.0
53153.0,STARLINK-4098,PAYLOAD,2023-05-28 00:17:10,15.08850147,0.0001187,53.2179,48.165,79.9369,280.1758,1.0348e-05,-1.23e-06,0.0,0 STARLINK-4098,1 53153U 22083X   23148.01192501 -.00000123  00000-0  10348-4 0  9996,2 53153  53.2179  48.1650 0001187  79.9369 280.1758 15.08850147 48507,6917.849,95.437,540.536,538.893,0.0
53153.0,STARLINK-4098,PAYLOAD,2023-05-28 17:46:25,15.08841005,0.0001187,53.2181,44.8943,77.1278,282.9847,9.3545e-05,1.201e-05,0.0,0 STARLINK-4098,1 53153U 22083X   23148.74056879  .00001201  00000-0  93545-4 0  9990,2 53153  53.2181  44.8943 0001187  77.1278 282.9847 15.08841005 48611,6917.877,95.437,540.563,538.921,0.0
